CTC1_L_00247001-01
1 32435U 24625KU  26070.40834491  .00000000  00000+0  00000-0 0  9993
2 32435  55.0000   0.0000 0000000   0.0000   0.0000 15.48880433    14
CTC1_L_00247001-02
1 32436U 24368RK  26070.40834491  .00000000  00000+0  00000-0 0  9998
2 32436  55.0000   0.0000 0000000   0.0000  90.0000 15.48880433    14
CTC1_L_00247001-03
1 32437U 22877HA  26070.40834491  .00000000  00000+0  00000-0 0  9992
2 32437  55.0000   0.0000 0000000   0.0000 180.0000 15.48880433    15
CTC1_L_00247001-04
1 32438U 25727IH  26070.40834491  .00000000  00000+0  00000-0 0  9990
2 32438  55.0000   0.0000 0000000   0.0000 270.0000 15.48880433    16
CTC1_L_00247002-01
1 32439U 23187U   26070.40834491  .00000000  00000+0  00000-0 0  9999
2 32439  55.0000  12.0000 0000000   0.0000  12.0000 15.48880433    14
CTC1_L_00247002-02
1 32440U 24321OF  26070.40834491  .00000000  00000+0  00000-0 0  9992
2 32440  55.0000  12.0000 0000000   0.0000 102.0000 15.48880433    16
CTC1_L_00247002-03
1 32441U 24393SJ  26070.40834491  .00000000  00000+0  00000-0 0  9992
2 32441  55.0000  12.0000 0000000   0.0000 192.0000 15.48880433    16
CTC1_L_00247002-04
1 32442U 24107WE  26070.40834491  .00000000  00000+0  00000-0 0  9996
2 32442  55.0000  12.0000 0000000   0.0000 282.0000 15.48880433    17
CTC1_L_00247003-01
1 32443U 23752ES  26070.40834491  .00000000  00000+0  00000-0 0  9992
2 32443  55.0000  24.0000 0000000   0.0000  24.0000 15.48880433    15
CTC1_L_00247003-02
1 32444U 24331YJ  26070.40834491  .00000000  00000+0  00000-0 0  9997
2 32444  55.0000  24.0000 0000000   0.0000 114.0000 15.48880433    16
CTC1_L_00247003-03
1 32445U 25484FP  26070.40834491  .00000000  00000+0  00000-0 0  9998
2 32445  55.0000  24.0000 0000000   0.0000 204.0000 15.48880433    17
CTC1_L_00247003-04
1 32446U 24412OH  26070.40834491  .00000000  00000+0  00000-0 0  9999
2 32446  55.0000  24.0000 0000000   0.0000 294.0000 15.48880433    17
CTC1_L_00247004-01
1 32447U 25745JD  26070.40834491  .00000000  00000+0  00000-0 0  9990
2 32447  55.0000  36.0000 0000000   0.0000  36.0000 15.48880433    15
CTC1_L_00247004-02
1 32448U 23373WE  26070.40834491  .00000000  00000+0  00000-0 0  9996
2 32448  55.0000  36.0000 0000000   0.0000 126.0000 15.48880433    16
CTC1_L_00247004-03
1 32449U 25308FP  26070.40834491  .00000000  00000+0  00000-0 0  9997
2 32449  55.0000  36.0000 0000000   0.0000 216.0000 15.48880433    17
CTC1_L_00247004-04
1 32450U 26632LE  26070.40834491  .00000000  00000+0  00000-0 0  9990
2 32450  55.0000  36.0000 0000000   0.0000 306.0000 15.48880433    19
CTC1_L_00247005-01
1 32451U 22933AK  26070.40834491  .00000000  00000+0  00000-0 0  9991
2 32451  55.0000  48.0000 0000000   0.0000  48.0000 15.48880433    16
CTC1_L_00247005-02
1 32452U 22452KE  26070.40834491  .00000000  00000+0  00000-0 0  9998
2 32452  55.0000  48.0000 0000000   0.0000 138.0000 15.48880433    17
CTC1_L_00247005-03
1 32453U 22667VZ  26070.40834491  .00000000  00000+0  00000-0 0  9997
2 32453  55.0000  48.0000 0000000   0.0000 228.0000 15.48880433    18
CTC1_L_00247005-04
1 32454U 23819HT  26070.40834491  .00000000  00000+0  00000-0 0  9998
2 32454  55.0000  48.0000 0000000   0.0000 318.0000 15.48880433    19
CTC1_L_00247006-01
1 32455U 23519IR  26070.40834491  .00000000  00000+0  00000-0 0  9996
2 32455  55.0000  60.0000 0000000   0.0000  60.0000 15.48880433    18
CTC1_L_00247006-02
1 32456U 25751XR  26070.40834491  .00000000  00000+0  00000-0 0  9997
2 32456  55.0000  60.0000 0000000   0.0000 150.0000 15.48880433    19
CTC1_L_00247006-03
1 32457U 22239XF  26070.40834491  .00000000  00000+0  00000-0 0  9996
2 32457  55.0000  60.0000 0000000   0.0000 240.0000 15.48880433    10
CTC1_L_00247006-04
1 32458U 24340OY  26070.40834491  .00000000  00000+0  00000-0 0  9992
2 32458  55.0000  60.0000 0000000   0.0000 330.0000 15.48880433    11
CTC1_L_00247007-01
1 32459U 23083FS  26070.40834491  .00000000  00000+0  00000-0 0  9996
2 32459  55.0000  72.0000 0000000   0.0000  72.0000 15.48880433    18
CTC1_L_00247007-02
1 32460U 25656WI  26070.40834491  .00000000  00000+0  00000-0 0  9996
2 32460  55.0000  72.0000 0000000   0.0000 162.0000 15.48880433    10
CTC1_L_00247007-03
1 32461U 25020ET  26070.40834491  .00000000  00000+0  00000-0 0  9992
2 32461  55.0000  72.0000 0000000   0.0000 252.0000 15.48880433    11
CTC1_L_00247007-04
1 32462U 24134HZ  26070.40834491  .00000000  00000+0  00000-0 0  9998
2 32462  55.0000  72.0000 0000000   0.0000 342.0000 15.48880433    12
CTC1_L_00247008-01
1 32463U 26611MQ  26070.40834491  .00000000  00000+0  00000-0 0  9991
2 32463  55.0000  84.0000 0000000   0.0000  84.0000 15.48880433    19
CTC1_L_00247008-02
1 32464U 24950KW  26070.40834491  .00000000  00000+0  00000-0 0  9996
2 32464  55.0000  84.0000 0000000   0.0000 174.0000 15.48880433    10
CTC1_L_00247008-03
1 32465U 26006LT  26070.40834491  .00000000  00000+0  00000-0 0  9991
2 32465  55.0000  84.0000 0000000   0.0000 264.0000 15.48880433    11
CTC1_L_00247008-04
1 32466U 26162IR  26070.40834491  .00000000  00000+0  00000-0 0  9995
2 32466  55.0000  84.0000 0000000   0.0000 354.0000 15.48880433    12
CTC1_L_00247009-01
1 32467U 22055OR  26070.40834491  .00000000  00000+0  00000-0 0  9993
2 32467  55.0000  96.0000 0000000   0.0000  96.0000 15.48880433    19
CTC1_L_00247009-02
1 32468U 23431JI  26070.40834491  .00000000  00000+0  00000-0 0  9993
2 32468  55.0000  96.0000 0000000   0.0000 186.0000 15.48880433    10
CTC1_L_00247009-03
1 32469U 24035IU  26070.40834491  .00000000  00000+0  00000-0 0  9995
2 32469  55.0000  96.0000 0000000   0.0000 276.0000 15.48880433    11
CTC1_L_00247009-04
1 32470U 26937EY  26070.40834491  .00000000  00000+0  00000-0 0  9990
2 32470  55.0000  96.0000 0000000   0.0000   6.0000 15.48880433    14
CTC1_L_00247010-01
1 32471U 22779JP  26070.40834491  .00000000  00000+0  00000-0 0  9991
2 32471  55.0000 108.0000 0000000   0.0000 108.0000 15.48880433    12
CTC1_L_00247010-02
1 32472U 22718LS  26070.40834491  .00000000  00000+0  00000-0 0  9995
2 32472  55.0000 108.0000 0000000   0.0000 198.0000 15.48880433    12
CTC1_L_00247010-03
1 32473U 22128ML  26070.40834491  .00000000  00000+0  00000-0 0  9991
2 32473  55.0000 108.0000 0000000   0.0000 288.0000 15.48880433    13
CTC1_L_00247010-04
1 32474U 26894KQ  26070.40834491  .00000000  00000+0  00000-0 0  9996
2 32474  55.0000 108.0000 0000000   0.0000  18.0000 15.48880433    15
CTC1_L_00247011-01
1 32475U 26024SA  26070.40834491  .00000000  00000+0  00000-0 0  9992
2 32475  55.0000 120.0000 0000000   0.0000 120.0000 15.48880433    14
CTC1_L_00247011-02
1 32476U 22804DV  26070.40834491  .00000000  00000+0  00000-0 0  9995
2 32476  55.0000 120.0000 0000000   0.0000 210.0000 15.48880433    15
CTC1_L_00247011-03
1 32477U 22863OB  26070.40834491  .00000000  00000+0  00000-0 0  9991
2 32477  55.0000 120.0000 0000000   0.0000 300.0000 15.48880433    16
CTC1_L_00247011-04
1 32478U 25709BS  26070.40834491  .00000000  00000+0  00000-0 0  9994
2 32478  55.0000 120.0000 0000000   0.0000  30.0000 15.48880433    17
CTC1_L_00247012-01
1 32479U 23668HS  26070.40834491  .00000000  00000+0  00000-0 0  9997
2 32479  55.0000 132.0000 0000000   0.0000 132.0000 15.48880433    14
CTC1_L_00247012-02
1 32480U 22022SQ  26070.40834491  .00000000  00000+0  00000-0 0  9992
2 32480  55.0000 132.0000 0000000   0.0000 222.0000 15.48880433    16
CTC1_L_00247012-03
1 32481U 25071MK  26070.40834491  .00000000  00000+0  00000-0 0  9990
2 32481  55.0000 132.0000 0000000   0.0000 312.0000 15.48880433    17
CTC1_L_00247012-04
1 32482U 23690US  26070.40834491  .00000000  00000+0  00000-0 0  9996
2 32482  55.0000 132.0000 0000000   0.0000  42.0000 15.48880433    18
CTC1_L_00247013-01
1 32483U 26769BA  26070.40834491  .00000000  00000+0  00000-0 0  9997
2 32483  55.0000 144.0000 0000000   0.0000 144.0000 15.48880433    15
CTC1_L_00247013-02
1 32484U 22307NK  26070.40834491  .00000000  00000+0  00000-0 0  9992
2 32484  55.0000 144.0000 0000000   0.0000 234.0000 15.48880433    16
CTC1_L_00247013-03
1 32485U 22280HU  26070.40834491  .00000000  00000+0  00000-0 0  9993
2 32485  55.0000 144.0000 0000000   0.0000 324.0000 15.48880433    17
CTC1_L_00247013-04
1 32486U 24865QT  26070.40834491  .00000000  00000+0  00000-0 0  9995
2 32486  55.0000 144.0000 0000000   0.0000  54.0000 15.48880433    18
CTC1_L_00247014-01
1 32487U 23046RV  26070.40834491  .00000000  00000+0  00000-0 0  9996
2 32487  55.0000 156.0000 0000000   0.0000 156.0000 15.48880433    15
CTC1_L_00247014-02
1 32488U 22414NA  26070.40834491  .00000000  00000+0  00000-0 0  9995
2 32488  55.0000 156.0000 0000000   0.0000 246.0000 15.48880433    16
CTC1_L_00247014-03
1 32489U 25880SY  26070.40834491  .00000000  00000+0  00000-0 0  9996
2 32489  55.0000 156.0000 0000000   0.0000 336.0000 15.48880433    17
CTC1_L_00247014-04
1 32490U 25519UZ  26070.40834491  .00000000  00000+0  00000-0 0  9997
2 32490  55.0000 156.0000 0000000   0.0000  66.0000 15.48880433    19
CTC1_L_00247015-01
1 32491U 26655Z   26070.40834491  .00000000  00000+0  00000-0 0  9990
2 32491  55.0000 168.0000 0000000   0.0000 168.0000 15.48880433    16
CTC1_L_00247015-02
1 32492U 26938FM  26070.40834491  .00000000  00000+0  00000-0 0  9995
2 32492  55.0000 168.0000 0000000   0.0000 258.0000 15.48880433    17
CTC1_L_00247015-03
1 32493U 22889HO  26070.40834491  .00000000  00000+0  00000-0 0  9997
2 32493  55.0000 168.0000 0000000   0.0000 348.0000 15.48880433    18
CTC1_L_00247015-04
1 32494U 24801XK  26070.40834491  .00000000  00000+0  00000-0 0  9994
2 32494  55.0000 168.0000 0000000   0.0000  78.0000 15.48880433    19
CTC1_L_00247016-01
1 32495U 26740QT  26070.40834491  .00000000  00000+0  00000-0 0  9999
2 32495  55.0000 180.0000 0000000   0.0000 180.0000 15.48880433    18
CTC1_L_00247016-02
1 32496U 24417FS  26070.40834491  .00000000  00000+0  00000-0 0  9999
2 32496  55.0000 180.0000 0000000   0.0000 270.0000 15.48880433    19
